LUCKY-7                 
1 44406U 19038W   22218.49447156  .00003175  00000+0  16811-3 0  9999
2 44406  97.6415 187.8056 0021267 321.8585  38.1141 15.15996570170540
D-STAR ONE (EXOCONNECT) 
1 44410U 19038AA  22218.47602125  .00008772  00000+0  39858-3 0  9995
2 44410  97.6321 189.3726 0016599 320.6398  39.3629 15.20886478170694
NARSSCUBE-2             
1 44415U 19022E   22218.45010509  .00005063  00000+0  15558-3 0  9991
2 44415  51.6389 235.5326 0009824 237.6658 122.3374 15.35434351167794
DUCHIFAT-3              
1 44854U 19089C   22218.52398714  .00001395  00000+0  11236-3 0  9999
2 44854  36.9658 163.4436 0009387 272.9091  87.0582 15.01334245145466
OPS-SAT                 
1 44878U 19092F   22218.54308907  .00005422  00000+0  24913-3 0  9997
2 44878  97.4813  42.0872 0012794 159.1748 201.0011 15.20725616145804
FLORIPASAT-1            
1 44885U 19093G   22218.46911804  .00000731  00000+0  95705-4 0  9999
2 44885  97.8964 298.3754 0015066  34.6337 325.5859 14.83287604142261
HUSKYSAT-1 (HO-107)     
1 45119U 19071J   22218.09967168  .00016534  00000+0  33671-3 0  9990
2 45119  51.6364 175.1193 0009411   0.2723 359.8268 15.46345226141042
BY70-2                  
1 45857U 20042B   22218.58928034  .00002729  00000+0  36469-3 0  9991
2 45857  97.9552 294.9673 0008953 319.9812  40.0756 14.80313169112873
SALSAT                  
1 46495U 20068K   22218.44056626  .00001312  00000+0  97471-4 0  9990
2 46495  97.7315 159.7666 0018102 106.8361 253.4852 15.04682353101704
NETSAT-4                
1 46504U 20068U   22218.62212107  .00001000  00000+0  77543-4 0  9991
2 46504  97.7285 158.3271 0012985 149.3424 210.8568 15.03645992101587
NETSAT-3                
1 46505U 20068V   22218.57239616  .00001759  00000+0  13307-3 0  9998
2 46505  97.7258 158.1906 0011585 158.1923 201.9768 15.03602429101589
NETSAT-1                
1 46506U 20068W   22218.59064050  .00000964  00000+0  75202-4 0  9999
2 46506  97.7264 158.1358 0008941 165.6497 194.5071 15.03525260101580
NETSAT-2                
1 46507U 20068X   22218.60078355  .00000265  00000+0  24000-4 0  9999
2 46507  97.7285 158.1386 0008033 169.1306 191.0138 15.03506334101537
BY70-3                  
1 46839U 20079N   22218.51506486  .00012919  00000+0  28696-3 0  9993
2 46839  97.1949 290.0101 0006598 140.2890 345.4906 15.43797074 97965
UVSQ-SAT                
1 47438U 21006AB  22218.38001126  .00003480  00000+0  18343-3 0  9997
2 47438  97.4340 276.3714 0013504 101.5434 258.7316 15.16163289 84844
SOMP2B                  
1 47445U 21006AJ  22218.38926610  .00002910  00000+0  15549-3 0  9991
2 47445  97.4313 276.0038 0013181 105.1019 255.1673 15.15810940 84836
DIY-1 (ARDUIQUBE)       
1 47963U 21022AH  22218.50577745  .00008694  00000+0  47113-3 0  9996
2 47963  97.5266 119.3177 0015199 327.1247  32.9038 15.14740785 74521
